{"type": "FeatureCollection", "features": [ {"type": "Feature", "properties": {"norad_id": 39122, "name": "EUTELSAT 117 WEST A", "group": "eutelsat", "lat": 0.026773555327497128, "lon": 36.136655522776564, "alt_km": 35791.99460679533, "timestamp": "2025-12-25T03:55:55.978841+00:00", "meta": {"OBJECT_NAME": "EUTELSAT 117 WEST A", "OBJECT_ID": "2013-012A", "EPOCH": "2025-12-24T14:15:19.427040", "MEAN_MOTION": 1.0027077, "ECCENTRICITY": 0.000273, "INCLINATION": 0.0203, "RA_OF_ASC_NODE": 318.1474, "ARG_OF_PERICENTER": 318.7018, "MEAN_ANOMALY": 273.5546, "EPHEMERIS_TYPE": 0, "CLASSIFICATION_TYPE": "U", "NORAD_CAT_ID": 39122, "ELEMENT_SET_NO": 999, "REV_AT_EPOCH": 4668, "BSTAR": 0, "MEAN_MOTION_DOT": 8e-08, "MEAN_MOTION_DDOT": 0}, "tle": {"line1": "1 39122U 13012A   25358.59397485  .00000008  00000+0  00000+0 0  9993", "line2": "2 39122   0.0203 318.1474 0002730 318.7018 273.5546  1.00270770 46682"}}, "geometry": {"type": "Point", "coordinates": [36.136655522776564, 0.026773555327497128]}}, {"type": "Feature", "properties": {"norad_id": 39163, "name": "EUTELSAT 7B", "group": "eutelsat", "lat": 0.042380611987418784, "lon": 159.88117564024617, "alt_km": 35804.516238804856, "timestamp": "2025-12-25T03:55:55.978853+00:00", "meta": {"OBJECT_NAME": "EUTELSAT 7B", "OBJECT_ID": "2013-022A", "EPOCH": "2025-12-24T16:33:21.210048", "MEAN_MOTION": 1.00271589, "ECCENTRICITY": 0.0004585, "INCLINATION": 0.0659, "RA_OF_ASC_NODE": 8.3067, "ARG_OF_PERICENTER": 314.1841, "MEAN_ANOMALY": 26.3009, "EPHEMERIS_TYPE": 0, "CLASSIFICATION_TYPE": "U", "NORAD_CAT_ID": 39163, "ELEMENT_SET_NO": 999, "REV_AT_EPOCH": 4619, "BSTAR": 0, "MEAN_MOTION_DOT": 6.9e-07, "MEAN_MOTION_DDOT": 0}, "tle": {"line1": "1 39163U 13022A   25358.68982882  .00000069  00000+0  00000+0 0  9997", "line2": "2 39163   0.0659   8.3067 0004585 314.1841  26.3009  1.00271589 46195"}}, "geometry": {"type": "Point", "coordinates": [159.88117564024617, 0.042380611987418784]}}, {"type": "Feature", "properties": {"norad_id": 39612, "name": "EXPRESS-AT1", "group": "eutelsat", "lat": -0.01194685754127477, "lon": -151.0893662121828, "alt_km": 35786.179572579116, "timestamp": "2025-12-25T03:55:55.978865+00:00", "meta": {"OBJECT_NAME": "EXPRESS-AT1", "OBJECT_ID": "2014-010A", "EPOCH": "2025-12-24T20:12:52.687872", "MEAN_MOTION": 1.00271264, "ECCENTRICITY": 8.96e-05, "INCLINATION": 0.0126, "RA_OF_ASC_NODE": 292.0137, "ARG_OF_PERICENTER": 187.4151, "MEAN_ANOMALY": 333.398, "EPHEMERIS_TYPE": 0, "CLASSIFICATION_TYPE": "U", "NORAD_CAT_ID": 39612, "ELEMENT_SET_NO": 999, "REV_AT_EPOCH": 4307, "BSTAR": 0, "MEAN_MOTION_DOT": 1e-06, "MEAN_MOTION_DDOT": 0}, "tle": {"line1": "1 39612U 14010A   25358.84227648  .00000100  00000+0  00000+0 0  9990", "line2": "2 39612   0.0126 292.0137 0000896 187.4151 333.3980  1.00271264 43072"}}, "geometry": {"type": "Point", "coordinates": [-151.0893662121828, -0.01194685754127477]}}, {"type": "Feature", "properties": {"norad_id": 39613, "name": "EXPRESS-AT2", "group": "eutelsat", "lat": -0.01290691929361366, "lon": -67.22771358933548, "alt_km": 35779.80159448795, "timestamp": "2025-12-25T03:55:55.978877+00:00", "meta": {"OBJECT_NAME": "EXPRESS-AT2", "OBJECT_ID": "2014-010B", "EPOCH": "2025-12-24T20:36:42.905952", "MEAN_MOTION": 1.00272003, "ECCENTRICITY": 0.0001573, "INCLINATION": 0.0174, "RA_OF_ASC_NODE": 291.2045, "ARG_OF_PERICENTER": 341.4639, "MEAN_ANOMALY": 269.999, "EPHEMERIS_TYPE": 0, "CLASSIFICATION_TYPE": "U", "NORAD_CAT_ID": 39613, "ELEMENT_SET_NO": 999, "REV_AT_EPOCH": 4275, "BSTAR": 0, "MEAN_MOTION_DOT": -2.6e-06, "MEAN_MOTION_DDOT": 0}, "tle": {"line1": "1 39613U 14010B   25358.85882993 -.00000260  00000+0  00000+0 0  9990", "line2": "2 39613   0.0174 291.2045 0001573 341.4639 269.9990  1.00272003 42752"}}, "geometry": {"type": "Point", "coordinates": [-67.22771358933548, -0.01290691929361366]}}, {"type": "Feature", "properties": {"norad_id": 39773, "name": "EUTELSAT 3B", "group": "eutelsat", "lat": 0.02289219335190325, "lon": 155.97009187353214, "alt_km": 35781.43789609698, "timestamp": "2025-12-25T03:55:55.978889+00:00", "meta": {"OBJECT_NAME": "EUTELSAT 3B", "OBJECT_ID": "2014-030A", "EPOCH": "2025-12-24T06:15:59.412384", "MEAN_MOTION": 1.00272567, "ECCENTRICITY": 0.00043423, "INCLINATION": 0.0612, "RA_OF_ASC_NODE": 347.6458, "ARG_OF_PERICENTER": 244.272, "MEAN_ANOMALY": 318.2288, "EPHEMERIS_TYPE": 0, "CLASSIFICATION_TYPE": "U", "NORAD_CAT_ID": 39773, "ELEMENT_SET_NO": 999, "REV_AT_EPOCH": 4231, "BSTAR": 0, "MEAN_MOTION_DOT": 4.1e-07, "MEAN_MOTION_DDOT": 0}, "tle": {"line1": "1 39773U 14030A   25358.26110431  .00000041  00000+0  00000+0 0  9991", "line2": "2 39773   0.0612 347.6458 0004342 244.2720 318.2288  1.00272567 42313"}}, "geometry": {"type": "Point", "coordinates": [155.97009187353214, 0.02289219335190325]}}, {"type": "Feature", "properties": {"norad_id": 40425, "name": "EUTELSAT 115 WEST B", "group": "eutelsat", "lat": -0.002355525990000651, "lon": 37.98188548625056, "alt_km": 35786.118682923465, "timestamp": "2025-12-25T03:55:55.978901+00:00", "meta": {"OBJECT_NAME": "EUTELSAT 115 WEST B", "OBJECT_ID": "2015-010B", "EPOCH": "2025-12-24T05:59:38.935680", "MEAN_MOTION": 1.00270958, "ECCENTRICITY": 1.68e-05, "INCLINATION": 0.0109, "RA_OF_ASC_NODE": 152.1321, "ARG_OF_PERICENTER": 169.5884, "MEAN_ANOMALY": 106.2964, "EPHEMERIS_TYPE": 0, "CLASSIFICATION_TYPE": "U", "NORAD_CAT_ID": 40425, "ELEMENT_SET_NO": 999, "REV_AT_EPOCH": 3963, "BSTAR": 0, "MEAN_MOTION_DOT": -4e-08, "MEAN_MOTION_DDOT": 0}, "tle": {"line1": "1 40425U 15010B   25358.24975620 -.00000004  00000+0  00000+0 0  9993", "line2": "2 40425   0.0109 152.1321 0000168 169.5884 106.2964  1.00270958 39639"}}, "geometry": {"type": "Point", "coordinates": [37.98188548625056, -0.002355525990000651]}}, {"type": "Feature", "properties": {"norad_id": 40875, "name": "EUTELSAT 8 WEST B", "group": "eutelsat", "lat": 0.05891659440453364, "lon": 144.86455666057947, "alt_km": 35797.552979951986, "timestamp": "2025-12-25T03:55:55.978914+00:00", "meta": {"OBJECT_NAME": "EUTELSAT 8 WEST B", "OBJECT_ID": "2015-039B", "EPOCH": "2025-12-24T14:46:08.976288", "MEAN_MOTION": 1.00271283, "ECCENTRICITY": 0.0004229, "INCLINATION": 0.0641, "RA_OF_ASC_NODE": 7.7175, "ARG_OF_PERICENTER": 266.4342, "MEAN_ANOMALY": 32.7715, "EPHEMERIS_TYPE": 0, "CLASSIFICATION_TYPE": "U", "NORAD_CAT_ID": 40875, "ELEMENT_SET_NO": 999, "REV_AT_EPOCH": 3790, "BSTAR": 0, "MEAN_MOTION_DOT": -4.5e-07, "MEAN_MOTION_DDOT": 0}, "tle": {"line1": "1 40875U 15039B   25358.61538167 -.00000045  00000+0  00000+0 0  9990", "line2": "2 40875   0.0641   7.7175 0004229 266.4342  32.7715  1.00271283 37906"}}, "geometry": {"type": "Point", "coordinates": [144.86455666057947, 0.05891659440453364]}}, {"type": "Feature", "properties": {"norad_id": 41310, "name": "EUTELSAT 9B", "group": "eutelsat", "lat": 0.03221281461368209, "lon": 161.87468143638588, "alt_km": 35792.28970579459, "timestamp": "2025-12-25T03:55:55.978926+00:00", "meta": {"OBJECT_NAME": "EUTELSAT 9B", "OBJECT_ID": "2016-005A", "EPOCH": "2025-12-24T06:17:44.244960", "MEAN_MOTION": 1.00272813, "ECCENTRICITY": 0.00045278, "INCLINATION": 0.023, "RA_OF_ASC_NODE": 38.5865, "ARG_OF_PERICENTER": 233.3148, "MEAN_ANOMALY": 284.5874, "EPHEMERIS_TYPE": 0, "CLASSIFICATION_TYPE": "U", "NORAD_CAT_ID": 41310, "ELEMENT_SET_NO": 999, "REV_AT_EPOCH": 3636, "BSTAR": 0, "MEAN_MOTION_DOT": 8.3e-07, "MEAN_MOTION_DDOT": 0}, "tle": {"line1": "1 41310U 16005A   25358.26231765  .00000083  00000+0  00000+0 0  9995", "line2": "2 41310   0.0230  38.5865 0004527 233.3148 284.5874  1.00272813 36363"}}, "geometry": {"type": "Point", "coordinates": [161.87468143638588, 0.03221281461368209]}}, {"type": "Feature", "properties": {"norad_id": 41382, "name": "EUTELSAT 65 WEST A", "group": "eutelsat", "lat": 0.06617576599977891, "lon": 87.72862353655836, "alt_km": 35795.55272671103, "timestamp": "2025-12-25T03:55:55.978938+00:00", "meta": {"OBJECT_NAME": "EUTELSAT 65 WEST A", "OBJECT_ID": "2016-014A", "EPOCH": "2025-12-24T17:55:35.836320", "MEAN_MOTION": 1.00272056, "ECCENTRICITY": 0.0002273, "INCLINATION": 0.0487, "RA_OF_ASC_NODE": 342.7403, "ARG_OF_PERICENTER": 293.9459, "MEAN_ANOMALY": 20.5499, "EPHEMERIS_TYPE": 0, "CLASSIFICATION_TYPE": "U", "NORAD_CAT_ID": 41382, "ELEMENT_SET_NO": 999, "REV_AT_EPOCH": 3578, "BSTAR": 0, "MEAN_MOTION_DOT": -2.55e-06, "MEAN_MOTION_DDOT": 0}, "tle": {"line1": "1 41382U 16014A   25358.74694255 -.00000255  00000+0  00000+0 0  9996", "line2": "2 41382   0.0487 342.7403 0002273 293.9459  20.5499  1.00272056 35782"}}, "geometry": {"type": "Point", "coordinates": [87.72862353655836, 0.06617576599977891]}}, {"type": "Feature", "properties": {"norad_id": 41589, "name": "EUTELSAT 117 WEST B", "group": "eutelsat", "lat": -0.0015300002586833966, "lon": 35.88466414341267, "alt_km": 35786.75347055875, "timestamp": "2025-12-25T03:55:55.978950+00:00", "meta": {"OBJECT_NAME": "EUTELSAT 117 WEST B", "OBJECT_ID": "2016-038B", "EPOCH": "2025-12-23T15:59:57.810912", "MEAN_MOTION": 1.00269264, "ECCENTRICITY": 2.679e-05, "INCLINATION": 0.0112, "RA_OF_ASC_NODE": 151.1868, "ARG_OF_PERICENTER": 153.5075, "MEAN_ANOMALY": 270.7383, "EPHEMERIS_TYPE": 0, "CLASSIFICATION_TYPE": "U", "NORAD_CAT_ID": 41589, "ELEMENT_SET_NO": 999, "REV_AT_EPOCH": 3490, "BSTAR": 0, "MEAN_MOTION_DOT": 1e-07, "MEAN_MOTION_DDOT": 0}, "tle": {"line1": "1 41589U 16038B   25357.66664133  .00000010  00000+0  00000+0 0  9991", "line2": "2 41589   0.0112 151.1868 0000267 153.5075 270.7383  1.00269264 34900"}}, "geometry": {"type": "Point", "coordinates": [35.88466414341267, -0.0015300002586833966]}}]}